IRIDIUM 144             
1 43249U 18030A   25231.90036482  .00000057  00000+0  13354-4 0  9990
2 43249  86.3919  56.3458 0002200  91.2960 268.8487 14.34217384386953
IRIDIUM 149             
1 43250U 18030B   25231.90670684  .00000076  00000+0  20132-4 0  9993
2 43250  86.3919  56.3138 0002237  91.6517 268.4935 14.34217712386973
IRIDIUM 157             
1 43251U 18030C   25231.92573364  .00000068  00000+0  17144-4 0  9993
2 43251  86.3920  56.3523 0002205  84.2862 275.8586 14.34218160386950
IRIDIUM 140             
1 43252U 18030D   25231.94476247  .00000098  00000+0  27958-4 0  9995
2 43252  86.3920  56.3578 0002138  94.2956 265.8484 14.34217815387011
IRIDIUM 145             
1 43253U 18030E   25231.93207704  .00000083  00000+0  22501-4 0  9998
2 43253  86.3921  56.3358 0002445  97.2813 262.8661 14.34218258386942
IRIDIUM 146             
1 43254U 18030F   25231.91304781  .00000085  00000+0  23362-4 0  9998
2 43254  86.3920  56.3571 0002388  96.5909 263.5559 14.34218458386950
IRIDIUM 148             
1 43255U 18030G   25231.95110508  .00000085  00000+0  23138-4 0  9996
2 43255  86.3921  56.3797 0002319  87.6403 272.5058 14.34218201386990
IRIDIUM 142             
1 43256U 18030H   25231.91939133  .00000014  00000+0 -21664-5 0  9992
2 43256  86.3916  56.2929 0002435  97.9652 262.1821 14.34217746386952
